start=new Date('2023-04-02T00:00:00.000Z').valueOf();
sats=[{"SITE":"AFETR","EPOCH":"2023-04-01T20:15:24.308640","APOAPSIS":"540.339","INCLINATION":"53.2164","CENTER_NAME":"EARTH","NORAD_CAT_ID":"53151","REV_AT_EPOCH":"3939","ECCENTRICITY":"0.00008600","FILE":"3877516","MEAN_ELEMENT_THEORY":"SGP4","MEAN_MOTION":"15.08840323","PERIOD":"95.438","TLE_LINE2":"2 53151  53.2164 300.3124 0000860  83.0416 277.0674 15.08840323 39398","COUNTRY_CODE":"US","EPHEMERIS_TYPE":"0","CLASSIFICATION_TYPE":"U","MEAN_ANOMALY":"277.0674","BSTAR":"0.00019632000000","REF_FRAME":"TEME","GP_ID":"229279114","PERIAPSIS":"539.149","OBJECT_ID":"2022-083V","OBJECT_TYPE":"PAYLOAD","SEMIMAJOR_AXIS":"6917.879","MEAN_MOTION_DOT":"0.00002838","RA_OF_ASC_NODE":"300.3124","TIME_SYSTEM":"UTC","MEAN_MOTION_DDOT":"0.0000000000000","RCS_SIZE":"LARGE","TLE_LINE1":"1 53151U 22083V   23091.84403135  .00002838  00000-0  19632-3 0  9998","DECAY_DATE":null,"ELEMENT_SET_NO":"999","OBJECT_NAME":"STARLINK-4040","ARG_OF_PERICENTER":"83.0416","LAUNCH_DATE":"2022-07-17"},{"LAUNCH_DATE":"2022-07-17","TLE_LINE1":"1 53152U 22083W   23091.85139026  .00003546  00000-0  24079-3 0  9993","RCS_SIZE":"LARGE","ELEMENT_SET_NO":"999","DECAY_DATE":null,"ARG_OF_PERICENTER":"71.8919","OBJECT_NAME":"STARLINK-4045","MEAN_MOTION_DDOT":"0.0000000000000","MEAN_MOTION_DOT":"0.00003546","RA_OF_ASC_NODE":"300.2795","TIME_SYSTEM":"UTC","REF_FRAME":"TEME","BSTAR":"0.00024079000000","PERIAPSIS":"538.873","GP_ID":"229278364","OBJECT_ID":"2022-083W","OBJECT_TYPE":"PAYLOAD","SEMIMAJOR_AXIS":"6917.892","MEAN_MOTION":"15.08836333","MEAN_ELEMENT_THEORY":"SGP4","EPHEMERIS_TYPE":"0","TLE_LINE2":"2 53152  53.2169 300.2795 0001277  71.8919 288.2212 15.08836333 39391","COUNTRY_CODE":"US","CLASSIFICATION_TYPE":"U","PERIOD":"95.438","MEAN_ANOMALY":"288.2212","REV_AT_EPOCH":"3939","NORAD_CAT_ID":"53152","ECCENTRICITY":"0.00012770","FILE":"3877516","SITE":"AFETR","EPOCH":"2023-04-01T20:26:00.118464","INCLINATION":"53.2169","CENTER_NAME":"EARTH","APOAPSIS":"540.640"},{"LAUNCH_DATE":"2022-07-17","RCS_SIZE":"LARGE","TLE_LINE1":"1 53153U 22083X   23091.84035047  .00000812  00000-0  69098-4 0  9995","DECAY_DATE":null,"ELEMENT_SET_NO":"999","OBJECT_NAME":"STARLINK-4098","ARG_OF_PERICENTER":"83.2517","MEAN_MOTION_DDOT":"0.0000000000000","MEAN_MOTION_DOT":"0.00000812","RA_OF_ASC_NODE":"300.3300","TIME_SYSTEM":"UTC","REF_FRAME":"TEME","BSTAR":"0.00006909800000","GP_ID":"229278114","PERIAPSIS":"538.946","OBJECT_TYPE":"PAYLOAD","OBJECT_ID":"2022-083X","SEMIMAJOR_AXIS":"6917.891","MEAN_ELEMENT_THEORY":"SGP4","MEAN_MOTION":"15.08836632","PERIOD":"95.438","TLE_LINE2":"2 53153  53.2169 300.3300 0001171  83.2517 276.8608 15.08836632 39393","COUNTRY_CODE":"US","CLASSIFICATION_TYPE":"U","EPHEMERIS_TYPE":"0","MEAN_ANOMALY":"276.8608","NORAD_CAT_ID":"53153","REV_AT_EPOCH":"3939","ECCENTRICITY":"0.00011710","FILE":"3877516","SITE":"AFETR","EPOCH":"2023-04-01T20:10:06.280608","APOAPSIS":"540.566","INCLINATION":"53.2169","CENTER_NAME":"EARTH"},{"EPOCH":"2023-04-01T20:20:42.537984","INCLINATION":"53.2146","CENTER_NAME":"EARTH","APOAPSIS":"540.553","SITE":"AFETR","ECCENTRICITY":"0.00011440","FILE":"3877516","REV_AT_EPOCH":"3939","NORAD_CAT_ID":"53154","MEAN_ANOMALY":"282.0042","MEAN_MOTION":"15.08834703","MEAN_ELEMENT_THEORY":"SGP4","EPHEMERIS_TYPE":"0","TLE_LINE2":"2 53154  53.2146 300.2993 0001144  78.1078 282.0042 15.08834703 39399","COUNTRY_CODE":"US","CLASSIFICATION_TYPE":"U","PERIOD":"95.438","OBJECT_TYPE":"PAYLOAD","OBJECT_ID":"2022-083Y","SEMIMAJOR_AXIS":"6917.897","BSTAR":"0.00016339000000","REF_FRAME":"TEME","PERIAPSIS":"538.970","GP_ID":"229279364","MEAN_MOTION_DOT":"0.00002313","RA_OF_ASC_NODE":"300.2993","TIME_SYSTEM":"UTC","MEAN_MOTION_DDOT":"0.0000000000000","ARG_OF_PERICENTER":"78.1078","OBJECT_NAME":"STARLINK-4077","RCS_SIZE":"LARGE","TLE_LINE1":"1 53154U 22083Y   23091.84771456  .00002313  00000-0  16339-3 0  9994","DECAY_DATE":null,"ELEMENT_SET_NO":"999","LAUNCH_DATE":"2022-07-17"},{"INCLINATION":"53.2152","CENTER_NAME":"EARTH","APOAPSIS":"540.267","EPOCH":"2023-04-01T19:59:31.208640","SITE":"AFETR","FILE":"3877516","ECCENTRICITY":"0.00006440","REV_AT_EPOCH":"4003","NORAD_CAT_ID":"53155","MEAN_ANOMALY":"301.0360","COUNTRY_CODE":"US","TLE_LINE2":"2 53155  53.2152 300.3659 0000644  59.0695 301.0360 15.08815246 40033","EPHEMERIS_TYPE":"0","CLASSIFICATION_TYPE":"U","PERIOD":"95.439","MEAN_MOTION":"15.08815246","MEAN_ELEMENT_THEORY":"SGP4","SEMIMAJOR_AXIS":"6917.956","OBJECT_TYPE":"PAYLOAD","OBJECT_ID":"2022-083Z","PERIAPSIS":"539.376","GP_ID":"229279614","BSTAR":"-0.00014812000000","REF_FRAME":"TEME","TIME_SYSTEM":"UTC","RA_OF_ASC_NODE":"300.3659","MEAN_MOTION_DOT":"-0.00002642","MEAN_MOTION_DDOT":"0.0000000000000","ARG_OF_PERICENTER":"59.0695","OBJECT_NAME":"STARLINK-4088","ELEMENT_SET_NO":"999","DECAY_DATE":null,"RCS_SIZE":"LARGE","TLE_LINE1":"1 53155U 22083Z   23091.83300010 -.00002642  00000-0 -14812-3 0  9999","LAUNCH_DATE":"2022-07-17"},{"TIME_SYSTEM":"UTC","MEAN_MOTION_DOT":"0.00001345","RA_OF_ASC_NODE":"300.3565","MEAN_MOTION_DDOT":"0.0000000000000","ARG_OF_PERICENTER":"85.2238","OBJECT_NAME":"STARLINK-4087","ELEMENT_SET_NO":"999","DECAY_DATE":null,"RCS_SIZE":"LARGE","TLE_LINE1":"1 53156U 22083AA  23091.83394780  .00001345  00000-0  10260-3 0  9997","LAUNCH_DATE":"2022-07-17","INCLINATION":"53.2151","CENTER_NAME":"EARTH","APOAPSIS":"540.299","EPOCH":"2023-04-01T20:00:53.089920","SITE":"AFETR","FILE":"3877516","ECCENTRICITY":"0.00007870","REV_AT_EPOCH":"3939","NORAD_CAT_ID":"53156","MEAN_ANOMALY":"274.8844","TLE_LINE2":"2 53156  53.2151 300.3565 0000787  85.2238 274.8844 15.08836848 39393","CLASSIFICATION_TYPE":"U","COUNTRY_CODE":"US","EPHEMERIS_TYPE":"0","PERIOD":"95.438","MEAN_MOTION":"15.08836848","MEAN_ELEMENT_THEORY":"SGP4","SEMIMAJOR_AXIS":"6917.890","OBJECT_ID":"2022-083AA","OBJECT_TYPE":"PAYLOAD","PERIAPSIS":"539.211","GP_ID":"229277864","REF_FRAME":"TEME","BSTAR":"0.00010260000000"},{"REF_FRAME":"TEME","BSTAR":"-0.00004569600000","GP_ID":"229278615","PERIAPSIS":"538.865","OBJECT_TYPE":"PAYLOAD","OBJECT_ID":"2022-083AB","SEMIMAJOR_AXIS":"6917.907","MEAN_ELEMENT_THEORY":"SGP4","MEAN_MOTION":"15.08831240","PERIOD":"95.438","TLE_LINE2":"2 53157  53.2155 300.3968 0001311  82.9419 277.1722 15.08831240 39396","COUNTRY_CODE":"US","CLASSIFICATION_TYPE":"U","EPHEMERIS_TYPE":"0","MEAN_ANOMALY":"277.1722","NORAD_CAT_ID":"53157","REV_AT_EPOCH":"3939","ECCENTRICITY":"0.00013110","FILE":"3877516","SITE":"AFETR","EPOCH":"2023-04-01T19:48:54.849312","APOAPSIS":"540.679","CENTER_NAME":"EARTH","INCLINATION":"53.2155","LAUNCH_DATE":"2022-07-17","RCS_SIZE":"LARGE","TLE_LINE1":"1 53157U 22083AB  23091.82563483 -.00001015  00000-0 -45696-4 0  9993","ELEMENT_SET_NO":"999","DECAY_DATE":null,"OBJECT_NAME":"STARLINK-4093","ARG_OF_PERICENTER":"82.9419","MEAN_MOTION_DDOT":"0.0000000000000","RA_OF_ASC_NODE":"300.3968","MEAN_MOTION_DOT":"-0.00001015","TIME_SYSTEM":"UTC"},{"ARG_OF_PERICENTER":"93.3746","OBJECT_NAME":"STARLINK-4054","TLE_LINE1":"1 53158U 22083AC  23091.83667296  .00012963  00000-0  83121-3 0  9998","RCS_SIZE":"LARGE","DECAY_DATE":null,"ELEMENT_SET_NO":"999","LAUNCH_DATE":"2022-07-17","MEAN_MOTION_DOT":"0.00012963","RA_OF_ASC_NODE":"300.3464","TIME_SYSTEM":"UTC","MEAN_MOTION_DDOT":"0.0000000000000","MEAN_ANOMALY":"266.7373","MEAN_MOTION":"15.08834243","MEAN_ELEMENT_THEORY":"SGP4","TLE_LINE2":"2 53158  53.2152 300.3464 0001113  93.3746 266.7373 15.08834243 39396","COUNTRY_CODE":"US","CLASSIFICATION_TYPE":"U","EPHEMERIS_TYPE":"0","PERIOD":"95.438","OBJECT_TYPE":"PAYLOAD","OBJECT_ID":"2022-083AC","SEMIMAJOR_AXIS":"6917.898","BSTAR":"0.00083121000000","REF_FRAME":"TEME","PERIAPSIS":"538.993","GP_ID":"229278865","EPOCH":"2023-04-01T20:04:48.543744","CENTER_NAME":"EARTH","INCLINATION":"53.2152","APOAPSIS":"540.533","SITE":"AFETR","ECCENTRICITY":"0.00011130","FILE":"3877516","REV_AT_EPOCH":"3939","NORAD_CAT_ID":"53158"},{"ECCENTRICITY":"0.00005840","FILE":"3877516","REV_AT_EPOCH":"3940","NORAD_CAT_ID":"53159","EPOCH":"2023-04-01T21:13:41.688192","CENTER_NAME":"EARTH","INCLINATION":"53.2142","APOAPSIS":"540.151","SITE":"AFETR","OBJECT_ID":"2022-083AD","OBJECT_TYPE":"PAYLOAD","SEMIMAJOR_AXIS":"6917.882","REF_FRAME":"TEME","BSTAR":"0.00030431000000","GP_ID":"229279115","PERIAPSIS":"539.343","MEAN_ANOMALY":"300.4232","MEAN_MOTION":"15.08839363","MEAN_ELEMENT_THEORY":"SGP4","TLE_LINE2":"2 53159  53.2142 300.1304 0000584  59.6818 300.4232 15.08839363 39403","COUNTRY_CODE":"US","CLASSIFICATION_TYPE":"U","EPHEMERIS_TYPE":"0","PERIOD":"95.438","MEAN_MOTION_DDOT":"0.0000000000000","RA_OF_ASC_NODE":"300.1304","MEAN_MOTION_DOT":"0.00004559","TIME_SYSTEM":"UTC","LAUNCH_DATE":"2022-07-17","ARG_OF_PERICENTER":"59.6818","OBJECT_NAME":"STARLINK-4111","TLE_LINE1":"1 53159U 22083AD  23091.88451028  .00004559  00000-0  30431-3 0  9996","RCS_SIZE":"LARGE","DECAY_DATE":null,"ELEMENT_SET_NO":"999"},{"MEAN_MOTION_DDOT":"0.0000000000000","TIME_SYSTEM":"UTC","MEAN_MOTION_DOT":"0.00002302","RA_OF_ASC_NODE":"300.3760","LAUNCH_DATE":"2022-07-17","OBJECT_NAME":"STARLINK-4096","ARG_OF_PERICENTER":"106.2475","ELEMENT_SET_NO":"999","DECAY_DATE":null,"TLE_LINE1":"1 53160U 22083AE  23091.82930944  .00002302  00000-0  16271-3 0  9991","RCS_SIZE":"LARGE","FILE":"3877516","ECCENTRICITY":"0.00009760","NORAD_CAT_ID":"53160","REV_AT_EPOCH":"3939","APOAPSIS":"540.436","INCLINATION":"53.2152","CENTER_NAME":"EARTH","EPOCH":"2023-04-01T19:54:12.335616","SITE":"AFETR","SEMIMAJOR_AXIS":"6917.896","OBJECT_ID":"2022-083AE","OBJECT_TYPE":"PAYLOAD","GP_ID":"229278365","PERIAPSIS":"539.086","REF_FRAME":"TEME","BSTAR":"0.00016271000000","MEAN_ANOMALY":"253.8625","PERIOD":"95.438","COUNTRY_CODE":"US","TLE_LINE2":"2 53160  53.2152 300.3760 0000976 106.2475 253.8625 15.08834882 39393","CLASSIFICATION_TYPE":"U","EPHEMERIS_TYPE":"0","MEAN_ELEMENT_THEORY":"SGP4","MEAN_MOTION":"15.08834882"}];
